NORAD_CAT_ID,OBJECT_NAME,OBJECT_TYPE,EPOCH,MEAN_MOTION,ECCENTRICITY,INCLINATION,RA_OF_ASC_NODE,ARG_OF_PERICENTER,MEAN_ANOMALY,BSTAR,MEAN_MOTION_DOT,MEAN_MOTION_DDOT,TLE_LINE0,TLE_LINE1,TLE_LINE2,SEMIMAJOR_AXIS,PERIOD,APOGEE,PERIGEE,DECAYED
52300.0,STARLINK-3769,PAYLOAD,2024-08-05 04:51:17,15.08844733,0.0001376,53.216,189.5201,86.6578,273.4572,4.7625e-05,4.7e-06,0.0,0 STARLINK-3769,1 52300U 22041AR  24218.20229035  .00000470  00000-0  47625-4 0  9998,2 52300  53.2160 189.5201 0001376  86.6578 273.4572 15.08844733127948,6917.866,95.437,540.683,538.779,0.0
52300.0,STARLINK-3769,PAYLOAD,2024-08-06 04:42:06,15.08824845,0.0001191,53.2145,185.0579,83.4999,276.6128,-0.0001109,-2.052e-05,0.0,0 STARLINK-3769,1 52300U 22041AR  24219.19591291 -.00002052  00000-0 -11090-3 0  9999,2 52300  53.2145 185.0579 0001191  83.4999 276.6128 15.08824845128098,6917.927,95.439,540.616,538.968,0.0
52300.0,STARLINK-3769,PAYLOAD,2024-08-06 14:14:25,15.08836734,0.0001294,53.2164,183.2768,87.9789,272.1352,-6.207e-05,-1.275e-05,0.0,0 STARLINK-3769,1 52300U 22041AR  24219.59334685 -.00001275  00000-0 -62070-4 0  9996,2 52300  53.2164 183.2768 0001294  87.9789 272.1352 15.08836734128156,6917.89,95.438,540.651,538.86,0.0
52300.0,STARLINK-3769,PAYLOAD,2024-08-06 22:11:19,15.0884874,9.18e-05,53.2166,181.7881,88.0833,272.0264,9.1407e-05,1.168e-05,0.0,0 STARLINK-3769,1 52300U 22041AR  24219.92453140  .00001168  00000-0  91407-4 0  9996,2 52300  53.2166 181.7881 0000918  88.0833 272.0264 15.08848740128208,6917.854,95.437,540.354,539.084,0.0
52300.0,STARLINK-3769,PAYLOAD,2024-08-07 01:22:05,15.08858037,0.0001288,53.217,181.195,90.9543,269.1597,0.00016221,2.296e-05,0.0,0 STARLINK-3769,1 52300U 22041AR  24220.05700318  .00002296  00000-0  16221-3 0  9997,2 52300  53.2170 181.1950 0001288  90.9543 269.1597 15.08858037128223,6917.825,95.436,540.581,538.799,0.0
52300.0,STARLINK-3769,PAYLOAD,2024-08-07 07:43:36,15.08864369,0.000135,53.2167,180.0033,102.535,257.5794,0.00019551,2.827e-05,0.0,0 STARLINK-3769,1 52300U 22041AR  24220.32195477  .00002827  00000-0  19551-3 0  9990,2 52300  53.2167 180.0033 0001350 102.5350 257.5794 15.08864369128264,6917.806,95.436,540.605,538.737,0.0
52300.0,STARLINK-3769,PAYLOAD,2024-08-08 07:34:26,15.08833632,0.0001392,53.2159,175.5402,92.7876,267.3276,0.00010296,1.351e-05,0.0,0 STARLINK-3769,1 52300U 22041AR  24221.31558451  .00001351  00000-0  10296-3 0  9993,2 52300  53.2159 175.5402 0001392  92.7876 267.3276 15.08833632128413,6917.9,95.438,540.728,538.802,0.0
52300.0,STARLINK-3769,PAYLOAD,2024-08-08 21:52:54,15.0884167,0.0001141,53.2161,172.863,83.1931,276.9191,-3.5616e-05,-8.55e-06,0.0,0 STARLINK-3769,1 52300U 22041AR  24221.91174306 -.00000855  00000-0 -35616-4 0  9996,2 52300  53.2161 172.8630 0001141  83.1931 276.9191 15.08841670128500,6917.875,95.437,540.53,538.951,0.0
52300.0,STARLINK-3769,PAYLOAD,2024-08-09 02:39:03,15.08851877,0.0001549,53.2172,171.9724,86.0939,274.0231,-0.00011303,-2.087e-05,0.0,0 STARLINK-3769,1 52300U 22041AR  24222.11045808 -.00002087  00000-0 -11303-3 0  9998,2 52300  53.2172 171.9724 0001549  86.0939 274.0231 15.08851877128535,6917.844,95.437,540.781,538.638,0.0
52300.0,STARLINK-3769,PAYLOAD,2024-08-09 13:46:45,15.08848114,0.0001714,53.2164,169.891,91.0593,269.0595,-0.00010657,-1.984e-05,0.0,0 STARLINK-3769,1 52300U 22041AR  24222.57413759 -.00001984  00000-0 -10657-3 0  9998,2 52300  53.2164 169.8910 0001714  91.0593 269.0595 15.08848114128600,6917.856,95.437,540.906,538.535,0.0
52300.0,STARLINK-3769,PAYLOAD,2024-08-09 20:08:18,15.08833597,0.000208,53.216,168.706,86.0043,274.1187,0.00010591,1.397e-05,0.0,0 STARLINK-3769,1 52300U 22041AR  24222.83910542  .00001397  00000-0  10591-3 0  9992,2 52300  53.2160 168.7060 0002080  86.0043 274.1187 15.08833597128648,6917.9,95.438,541.204,538.326,0.0
52300.0,STARLINK-3769,PAYLOAD,2024-08-10 04:05:13,15.08845286,0.0001457,53.2168,167.2134,87.0742,273.0417,0.00011565,1.553e-05,0.0,0 STARLINK-3769,1 52300U 22041AR  24223.17029721  .00001553  00000-0  11565-3 0  9996,2 52300  53.2168 167.2134 0001457  87.0742 273.0417 15.08845286128693,6917.864,95.437,540.737,538.721,0.0
52300.0,STARLINK-3769,PAYLOAD,2024-08-10 19:59:05,15.08836736,0.000174,53.2168,164.2442,84.7125,275.4066,5.6718e-05,6.15e-06,0.0,0 STARLINK-3769,1 52300U 22041AR  24223.83270676  .00000615  00000-0  56718-4 0  9994,2 52300  53.2168 164.2442 0001740  84.7125 275.4066 15.08836736128793,6917.89,95.438,540.959,538.552,0.0
52300.0,STARLINK-3769,PAYLOAD,2024-08-11 02:20:36,15.08858443,0.0001705,53.2175,163.053,114.7729,245.344,0.0001576,2.222e-05,0.0,0 STARLINK-3769,1 52300U 22041AR  24224.09764800  .00002222  00000-0  15760-3 0  9997,2 52300  53.2175 163.0530 0001705 114.7729 245.3440 15.08858443128837,6917.824,95.436,540.869,538.51,0.0
52300.0,STARLINK-3769,PAYLOAD,2024-08-11 19:49:53,15.08830373,0.0001917,53.2163,159.7855,73.3713,286.7489,5.1045e-05,5.24e-06,0.0,0 STARLINK-3769,1 52300U 22041AR  24224.82631136  .00000524  00000-0  51045-4 0  9993,2 52300  53.2163 159.7855 0001917  73.3713 286.7489 15.08830373128940,6917.91,95.438,541.101,538.449,0.0
52300.0,STARLINK-3769,PAYLOAD,2024-08-11 23:00:39,15.08833385,0.0001614,53.2151,159.1906,76.4886,283.6286,7.5652e-05,9.16e-06,0.0,0 STARLINK-3769,1 52300U 22041AR  24224.95878797  .00000916  00000-0  75652-4 0  9998,2 52300  53.2151 159.1906 0001614  76.4886 283.6286 15.08833385128966,6917.901,95.438,540.882,538.649,0.0
52300.0,STARLINK-3769,PAYLOAD,2024-08-12 02:11:24,15.08843981,0.0001572,53.217,158.5949,80.6627,279.4543,0.00015781,2.225e-05,0.0,0 STARLINK-3769,1 52300U 22041AR  24225.09125934  .00002225  00000-0  15781-3 0  9993,2 52300  53.2170 158.5949 0001572  80.6627 279.4543 15.08843981128984,6917.868,95.437,540.821,538.646,0.0
52300.0,STARLINK-3769,PAYLOAD,2024-08-12 19:40:38,15.08859822,0.0001542,53.2163,155.3195,101.8581,258.2584,2.8133e-07,-2.84e-06,0.0,0 STARLINK-3769,1 52300U 22041AR  24225.81988948 -.00000284  00000-0  28133-6 0  9997,2 52300  53.2163 155.3195 0001542 101.8581 258.2584 15.08859822129090,6917.82,95.436,540.752,538.618,0.0
52300.0,STARLINK-3769,PAYLOAD,2024-08-12 22:51:24,15.08865625,0.0001457,53.2172,154.729,110.3094,249.8055,0.00010977,1.461e-05,0.0,0 STARLINK-3769,1 52300U 22041AR  24225.95236153  .00001461  00000-0  10977-3 0  9997,2 52300  53.2172 154.7290 0001457 110.3094 249.8055 15.08865625129118,6917.802,95.436,540.675,538.659,0.0
52300.0,STARLINK-3769,PAYLOAD,2024-08-13 02:02:12,15.08813086,0.0001686,53.2156,154.1306,100.8371,259.2811,-0.00057144,-9.364e-05,0.0,0 STARLINK-3769,1 52300U 22041AR  24226.08487167 -.00009364  00000-0 -57144-3 0  9994,2 52300  53.2156 154.1306 0001686 100.8371 259.2811 15.08813086129139,6917.963,95.439,540.994,538.661,0.0
52300.0,STARLINK-3769,PAYLOAD,2024-08-13 05:13:00,15.087968,0.0001683,53.2156,153.5368,99.009,261.1093,-0.00075845,-0.00012324,0.0,0 STARLINK-3769,1 52300U 22041AR  24226.21736175 -.00012324  00000-0 -75845-3 0  9993,2 52300  53.2156 153.5368 0001683  99.0090 261.1093 15.08796800129154,6918.012,95.44,541.042,538.713,0.0
52300.0,STARLINK-3769,PAYLOAD,2024-08-13 22:42:14,15.08834385,0.0001587,53.2159,150.2694,88.2319,271.8855,0.00016649,2.362e-05,0.0,0 STARLINK-3769,1 52300U 22041AR  24226.94600210  .00002362  00000-0  16649-3 0  9999,2 52300  53.2159 150.2694 0001587  88.2319 271.8855 15.08834385129267,6917.898,95.438,540.86,538.665,0.0
52300.0,STARLINK-3769,PAYLOAD,2024-08-14 01:53:00,15.08838768,0.0001443,53.215,149.6755,82.1002,278.0154,0.00026473,3.928e-05,0.0,0 STARLINK-3769,1 52300U 22041AR  24227.07848041  .00003928  00000-0  26473-3 0  9995,2 52300  53.2150 149.6755 0001443  82.1002 278.0154 15.08838768129283,6917.884,95.438,540.747,538.751,0.0
52300.0,STARLINK-3769,PAYLOAD,2024-08-14 11:25:19,15.08847942,0.0001491,53.2161,147.8915,84.2052,275.911,0.00018829,2.711e-05,0.0,0 STARLINK-3769,1 52300U 22041AR  24227.47591525  .00002711  00000-0  18829-3 0  9996,2 52300  53.2161 147.8915 0001491  84.2052 275.9110 15.08847942129343,6917.856,95.437,540.753,538.69,0.0
52300.0,STARLINK-3769,PAYLOAD,2024-08-14 22:33:00,15.08851174,0.0001384,53.2163,145.8102,88.3359,271.7792,0.00023845,3.51e-05,0.0,0 STARLINK-3769,1 52300U 22041AR  24227.93959400  .00003510  00000-0  23845-3 0  9999,2 52300  53.2163 145.8102 0001384  88.3359 271.7792 15.08851174129417,6917.846,95.437,540.669,538.754,0.0
52300.0,STARLINK-3769,PAYLOAD,2024-08-15 01:43:46,15.08855377,0.0001442,53.216,145.2178,95.384,264.7317,0.00033855,5.106e-05,0.0,0 STARLINK-3769,1 52300U 22041AR  24228.07207135  .00005106  00000-0  33855-3 0  9991,2 52300  53.2160 145.2178 0001442  95.3840 264.7317 15.08855377129435,6917.833,95.437,540.696,538.701,0.0
52300.0,STARLINK-3769,PAYLOAD,2024-08-15 11:16:06,15.08836518,0.0001299,53.2145,143.4308,80.4277,279.6862,0.0005463,8.416e-05,0.0,0 STARLINK-3769,1 52300U 22041AR  24228.46951952  .00008416  00000-0  54630-3 0  9998,2 52300  53.2145 143.4308 0001299  80.4277 279.6862 15.08836518129494,6917.891,95.438,540.655,538.857,0.0
52300.0,STARLINK-3769,PAYLOAD,2024-08-15 22:23:48,15.08841997,0.0001661,53.2152,141.3478,88.5706,271.5477,-0.00011834,-2.171e-05,0.0,0 STARLINK-3769,1 52300U 22041AR  24228.93319866 -.00002171  00000-0 -11834-3 0  9995,2 52300  53.2152 141.3478 0001661  88.5706 271.5477 15.08841997129564,6917.874,95.437,540.888,538.59,0.0
52300.0,STARLINK-3769,PAYLOAD,2024-08-16 01:34:34,15.08853326,0.0001372,53.2154,140.7544,98.3453,261.7695,2.6448e-05,1.33e-06,0.0,0 STARLINK-3769,1 52300U 22041AR  24229.06567140  .00000133  00000-0  26448-4 0  9992,2 52300  53.2154 140.7544 0001372  98.3453 261.7695 15.08853326129584,6917.84,95.437,540.654,538.756,0.0
52300.0,STARLINK-3769,PAYLOAD,2024-08-17 03:00:43,15.08858163,0.0001464,53.2156,135.9942,80.7975,279.3182,6.4986e-06,-1.85e-06,0.0,0 STARLINK-3769,1 52300U 22041AR  24230.12550414 -.00000185  00000-0  64986-5 0  9995,2 52300  53.2156 135.9942 0001464  80.7975 279.3182 15.08858163129748,6917.825,95.436,540.703,538.677,0.0
